NORAD_CAT_ID,OBJECT_NAME,OBJECT_TYPE,EPOCH,MEAN_MOTION,ECCENTRICITY,INCLINATION,RA_OF_ASC_NODE,ARG_OF_PERICENTER,MEAN_ANOMALY,BSTAR,MEAN_MOTION_DOT,MEAN_MOTION_DDOT,TLE_LINE0,TLE_LINE1,TLE_LINE2,SEMIMAJOR_AXIS,PERIOD,APOGEE,PERIGEE,DECAYED
52090.0,STARLINK-3712,PAYLOAD,2022-05-22 06:00:00,15.11445802,0.0001852,53.2175,197.5886,44.5278,131.7766,-0.045343,-0.00721835,0.0,0 STARLINK-3712,1 52090U 22029C   22142.25001157 -.00721835  00000-0 -45343-1 0  9991,2 52090  53.2175 197.5886 0001852  44.5278 131.7766 15.11445802 11195,6909.927,95.273,533.072,530.512,0.0
52090.0,STARLINK-3712,PAYLOAD,2022-05-22 14:00:01,15.10932324,0.0001753,53.2174,196.0881,48.5208,142.2007,-0.045596,-0.00715961,0.0,0 STARLINK-3712,1 52090U 22029C   22142.58334491 -.00715961  00000-0 -45596-1 0  9990,2 52090  53.2174 196.0881 0001753  48.5208 142.2007 15.10932324  1306,6911.4919999999975,95.305,534.569,532.146,0.0
52090.0,STARLINK-3712,PAYLOAD,2022-05-22 22:00:01,15.10425177,0.0001727,53.2174,194.5854,47.9542,156.6342,-0.046542,-0.00720269,0.0,0 STARLINK-3712,1 52090U 22029C   22142.91668981 -.00720269  00000-0 -46542-1 0  9990,2 52090  53.2174 194.5854 0001727  47.9542 156.6342 15.10425177  1308,6913.0390000000025,95.337,536.0980000000002,533.71,0.0
52090.0,STARLINK-3712,PAYLOAD,2022-05-23 14:00:01,15.09367346,0.0001701,53.2173,191.5891,49.2343,181.0678,-0.04166,-0.00631751,0.0,0 STARLINK-3712,1 52090U 22029C   22143.58334491 -.00631751  00000-0 -41660-1 0  9993,2 52090  53.2173 191.5891 0001701  49.2343 181.0678 15.09367346 11396,6916.269,95.404,539.31,536.9580000000002,0.0
52090.0,STARLINK-3712,PAYLOAD,2022-05-23 20:00:01,15.08888163,0.0001823,53.2174,190.4647,40.3315,109.0111,-0.0051528999999999,-0.00081478,0.0,0 STARLINK-3712,1 52090U 22029C   22143.83334491 -.00081478  00000-0 -51529-2 0  9992,2 52090  53.2174 190.4647 0001823  40.3315 109.0111 15.08888163 11431,6917.733,95.435,540.859,538.337,0.0
52090.0,STARLINK-3712,PAYLOAD,2022-05-23 22:00:01,15.08839926,0.0001822,53.2175,190.09,43.2816,199.0458,-0.00030483,-5.136e-05,0.0,0 STARLINK-3712,1 52090U 22029C   22143.91668981 -.00005136  00000-0 -30483-3 0  9999,2 52090  53.2175 190.0900 0001822  43.2816 199.0458 15.08839926  1308,6917.880999999999,95.438,541.006,538.485,0.0
52090.0,STARLINK-3712,PAYLOAD,2022-05-24 04:00:00,15.08954165,0.0001636,53.2149,188.9705,47.8765,113.1655,-0.023018,-0.00350288,0.0,0 STARLINK-3712,1 52090U 22029C   22144.16667824 -.00350288  00000-0 -23018-1 0  9997,2 52090  53.2149 188.9705 0001636  47.8765 113.1655 15.08954165 11483,6917.531,95.43,540.528,538.265,0.0
52090.0,STARLINK-3712,PAYLOAD,2022-05-24 14:00:01,15.08852674,0.000186,53.2131,187.1059,38.8036,226.781,0.00087934,0.00013739,0.0,0 STARLINK-3712,1 52090U 22029C   22144.58334491  .00013739  00000-0  87934-3 0  9998,2 52090  53.2131 187.1059 0001860  38.8036 226.7810 15.08852674 11540,6917.842,95.437,540.993,538.42,0.0
52090.0,STARLINK-3712,PAYLOAD,2022-05-24 22:00:00,15.08846227,0.0001661,53.2133,185.6076,43.4862,233.7294,-0.0026985,-0.00042986,0.0,0 STARLINK-3712,1 52090U 22029C   22144.91667824 -.00042986  00000-0 -26985-2 0  9990,2 52090  53.2133 185.6076 0001661  43.4862 233.7294 15.08846227  1306,6917.861,95.437,540.875,538.577,0.0
52090.0,STARLINK-3712,PAYLOAD,2022-05-25 04:00:00,15.08827606,0.0001641,53.2136,184.4854,44.9579,150.9501,-0.00069913,-0.00011394,0.0,0 STARLINK-3712,1 52090U 22029C   22145.16667824 -.00011394  00000-0 -69913-3 0  9996,2 52090  53.2136 184.4854 0001641  44.9579 150.9501 15.08827606 11637,6917.918000000002,95.438,540.919,538.648,0.0
52090.0,STARLINK-3712,PAYLOAD,2022-05-25 14:00:01,15.08799256,0.0001824,53.213,182.6165,37.8395,262.5336,0.00245,0.00038876,0.0,0 STARLINK-3712,1 52090U 22029C   22145.58334491  .00038876  00000-0  24500-2 0  9997,2 52090  53.2130 182.6165 0001824  37.8395 262.5336 15.08799256  1304,6918.005,95.44,541.132,538.6080000000002,0.0
52090.0,STARLINK-3712,PAYLOAD,2022-05-25 22:00:00,15.08804542,0.0001625,53.2131,181.1183,43.2887,268.661,0.0025441,0.00040395,0.0,0 STARLINK-3712,1 52090U 22029C   22145.91667824  .00040395  00000-0  25441-2 0  9997,2 52090  53.2131 181.1183 0001625  43.2887 268.6610 15.08804542  1302,6917.989000000001,95.44,540.9780000000002,538.73,0.0
52090.0,STARLINK-3712,PAYLOAD,2022-05-26 06:00:00,15.08844891,0.0001696,53.2131,179.6227,43.3061,280.2073,-0.0015376,-0.00024679,0.0,0 STARLINK-3712,1 52090U 22029C   22146.25001157 -.00024679  00000-0 -15376-2 0  9991,2 52090  53.2131 179.6227 0001696  43.3061 280.2073 15.08844891 11806,6917.865,95.437,540.904,538.557,0.0
52090.0,STARLINK-3712,PAYLOAD,2022-05-26 12:31:15,15.08834693,0.0001789,53.2135,178.4016,43.6566,316.4567,-0.00011214,-2.072e-05,0.0,0 STARLINK-3712,1 52090U 22029C   22146.52170958 -.00002072  00000-0 -11214-3 0  9998,2 52090  53.2135 178.4016 0001789  43.6566 316.4567 15.08834693 11842,6917.897,95.438,540.999,538.524,0.0
52090.0,STARLINK-3712,PAYLOAD,2022-05-26 18:52:48,15.088348000000002,0.000179,53.2124,177.2105,43.9779,316.1355,-4.0215e-05,-9.28e-06,0.0,0 STARLINK-3712,1 52090U 22029C   22146.78666678 -.00000928  00000-0 -40215-4 0  9997,2 52090  53.2124 177.2105 0001790  43.9779 316.1355 15.08834800 11883,6917.896,95.438,541.0,538.523,0.0
52090.0,STARLINK-3712,PAYLOAD,2022-05-26 22:00:00,15.08813254,0.0001622,53.2124,176.62900000000005,44.8244,301.871,0.0027455,0.00043646,0.0,0 STARLINK-3712,1 52090U 22029C   22146.91667824  .00043646  00000-0  27455-2 0  9997,2 52090  53.2124 176.6290 0001622  44.8244 301.8710 15.08813254  1304,6917.962,95.439,540.9490000000002,538.705,0.0
52090.0,STARLINK-3712,PAYLOAD,2022-05-27 14:00:01,15.08830448,0.0001842,53.2126,173.6377,39.6202,330.2466,0.0012165,0.00019121,0.0,0 STARLINK-3712,1 52090U 22029C   22147.58334491  .00019121  00000-0  12165-2 0  9995,2 52090  53.2126 173.6377 0001842  39.6202 330.2466 15.08830448  1307,6917.91,95.438,541.049,538.5,0.0
52090.0,STARLINK-3712,PAYLOAD,2022-05-27 22:00:01,15.0881587,0.0001724,53.2151,172.1359,46.5226,335.0128,0.0037084,0.00059188,0.0,0 STARLINK-3712,1 52090U 22029C   22147.91668981  .00059188  00000-0  37084-2 0  9990,2 52090  53.2151 172.1359 0001724  46.5226 335.0128 15.08815870 12055,6917.954000000002,95.439,541.012,538.626,0.0
52090.0,STARLINK-3712,PAYLOAD,2022-05-28 04:15:54,15.08827135,0.0001965,53.2126,170.97299999999996,44.5778,315.5372,4.8813e-05,4.89e-06,0.0,0 STARLINK-3712,1 52090U 22029C   22148.17771692  .00000489  00000-0  48813-4 0  9997,2 52090  53.2126 170.9730 0001965  44.5778 315.5372 15.08827135 12098,6917.92,95.438,541.144,538.425,0.0
52090.0,STARLINK-3712,PAYLOAD,2022-05-28 14:00:01,15.08838852,0.0001899,53.213,169.1482,40.4494,4.2084,0.00066959,0.00010384,0.0,0 STARLINK-3712,1 52090U 22029C   22148.58334491  .00010384  00000-0  66959-3 0  9999,2 52090  53.2130 169.1482 0001899  40.4494   4.2084 15.08838852 12150,6917.884,95.438,541.063,538.435,0.0
52090.0,STARLINK-3712,PAYLOAD,2022-05-28 22:00:00,15.08832721,0.000175,53.213,167.6498,47.1758,9.1033,0.0025359,0.00040294,0.0,0 STARLINK-3712,1 52090U 22029C   22148.91667824  .00040294  00000-0  25359-2 0  9996,2 52090  53.2130 167.6498 0001750  47.1758   9.1033 15.08832721  1305,6917.903,95.438,540.9780000000002,538.557,0.0
52090.0,STARLINK-3712,PAYLOAD,2022-05-29 14:00:01,15.08827963,0.0002069,53.2128,164.6584,43.7353,35.7358,0.00041134,6.262e-05,0.0,0 STARLINK-3712,1 52090U 22029C   22149.58334491  .00006262  00000-0  41134-3 0  9998,2 52090  53.2128 164.6584 0002069  43.7353  35.7358 15.08827963 12301,6917.917,95.438,541.2130000000002,538.351,0.0
52090.0,STARLINK-3712,PAYLOAD,2022-05-29 22:00:00,15.08809452,0.0001924,53.213,163.1602,49.6194,41.4435,0.0027399,0.00043551,0.0,0 STARLINK-3712,1 52090U 22029C   22149.91667824  .00043551  00000-0  27399-2 0  9992,2 52090  53.2130 163.1602 0001924  49.6194  41.4435 15.08809452  1307,6917.974,95.439,541.17,538.508,0.0
52090.0,STARLINK-3712,PAYLOAD,2022-05-30 14:00:01,15.08839931,0.0002174,53.213,160.1688,44.9108,69.3179,-1.4377e-05,-5.17e-06,0.0,0 STARLINK-3712,1 52090U 22029C   22150.58334491 -.00000517  00000-0 -14377-4 0  9999,2 52090  53.2130 160.1688 0002174  44.9108  69.3179 15.08839931  1308,6917.880999999999,95.438,541.25,538.242,0.0
52090.0,STARLINK-3712,PAYLOAD,2022-05-30 18:15:56,15.08841579,0.0002018,53.2153,159.3703,45.7109,314.4048,-3.6561e-05,-8.7e-06,0.0,0 STARLINK-3712,1 52090U 22029C   22150.76106574 -.00000870  00000-0 -36561-4 0  9999,2 52090  53.2153 159.3703 0002018  45.7109 314.4048 15.08841579 12489,6917.876,95.437,541.137,538.345,0.0
52090.0,STARLINK-3712,PAYLOAD,2022-05-30 22:00:00,15.08819662,0.000203,53.2134,158.6706,50.3805,75.4494,0.0025022,0.00039738,0.0,0 STARLINK-3712,1 52090U 22029C   22150.91667824  .00039738  00000-0  25022-2 0  9997,2 52090  53.2134 158.6706 0002030  50.3805  75.4494 15.08819662  1308,6917.943,95.439,541.212,538.403,0.0
52090.0,STARLINK-3712,PAYLOAD,2022-05-31 06:00:02,15.08852396,0.0002208,53.2136,157.1756,48.6286,88.8533,-0.0014919,-0.00023962,0.0,0 STARLINK-3712,1 52090U 22029C   22151.25002315 -.00023962  00000-0 -14919-2 0  9990,2 52090  53.2136 157.1756 0002208  48.6286  88.8533 15.08852396  1302,6917.842,95.437,541.235,538.18,0.0
52090.0,STARLINK-3712,PAYLOAD,2022-05-31 22:00:00,15.08830301,0.0002105,53.214,154.1811,51.9247,108.7006,0.0023144,0.00036729,0.0,0 STARLINK-3712,1 52090U 22029C   22151.91667824  .00036729  00000-0  23144-2 0  9998,2 52090  53.2140 154.1811 0002105  51.9247 108.7006 15.08830301 12655,6917.91,95.438,541.231,538.319,0.0
52090.0,STARLINK-3712,PAYLOAD,2022-06-01 12:00:00,15.08850291,0.0002284,53.214,151.5643,45.9713,44.9604,-0.00029789,-5.028e-05,0.0,0 STARLINK-3712,1 52090U 22029C   22152.50001157 -.00005028  00000-0 -29789-3 0  9997,2 52090  53.2140 151.5643 0002284  45.9713  44.9604 15.08850291 12743,6917.849,95.437,541.294,538.134,0.0
